SL-14 R/B               
1 16792U 86046B   25359.51285880  .00000601  00000+0  66413-4 0  9990
2 16792  82.4817 150.2510 0024532 111.9446 248.4381 14.85498293115395
SL-14 R/B               
1 16882U 86055B   25359.57660742  .00000505  00000+0  55499-4 0  9995
2 16882  82.5194 196.3102 0018041 213.8021 199.8124 14.85542689108363
AJISAI (EGS)            
1 16908U 86061A   25359.75204859 -.00000084  00000+0  93373-4 0  9990
2 16908  50.0112 320.7055 0011311  98.5713 327.4872 12.44514438458799
COSMOS 1812             
1 17295U 87003A   25359.74010412  .00119433  00000+0  69070-3 0  9990
2 17295  82.4871 277.9173 0006289  67.7016 292.4916 15.78221026132704
SL-14 R/B               
1 17567U 87024B   25359.50583531  .00000575  00000+0  62709-4 0  9995
2 17567  82.5278 162.4617 0019163 142.7772 217.4777 14.86036959 77119
COSMOS 1833             
1 17589U 87027A   25359.74332366  .00000299  00000+0  18551-3 0  9994
2 17589  70.9163 121.4419 0023110 313.5717  46.3484 14.13028539999860
SL-16 R/B               
1 17590U 87027B   25359.64893509 -.00000082  00000+0 -17039-4 0  9999
2 17590  71.0038  72.5169 0007212 246.2840 113.7528 14.17156572  4854
SL-14 R/B               
1 17912U 87038B   25359.53001084  .00000511  00000+0  56553-4 0  9995
2 17912  82.5010   6.6528 0020575  52.7511 307.5578 14.85272783 68225
COSMOS 1844             
1 17973U 87041A   25359.64443674  .00000337  00000+0  19983-3 0  9994
2 17973  70.8967 190.3525 0029553 136.6796 223.6657 14.14531822993118
SL-14 R/B               
1 18153U 87055B   25359.65435809  .00000519  00000+0  57138-4 0  9999
2 18153  82.4992  58.8171 0019188 257.3237 102.5834 14.85533971 58945
COSMOS 1867             
1 18187U 87060A   25359.73698242 -.00000019  00000+0  30413-4 0  9996
2 18187  65.0091 153.8047 0013681 272.3651  87.5867 14.31488121  9352
SL-14 R/B               
1 18749U 88001B   25359.71218841  .00000512  00000+0  56381-4 0  9996
2 18749  82.5133 264.9468 0019409 120.3637 239.9501 14.85436903 31047
