CCSDS_OMM_VERS = 2.0
CREATION_DATE  = 
ORIGINATOR     = 

OBJECT_NAME    = SL-14 R/B
OBJECT_ID      = 1986-046B
CENTER_NAME    = EARTH
REF_FRAME      = TEME
TIME_SYSTEM    = UTC
MEAN_ELEMENT_THEORY = SGP/SGP4

EPOCH          = 2025-12-25T12:18:31.000320
MEAN_MOTION    = 14.85498293
ECCENTRICITY   = .0024532
INCLINATION    = 82.4817
RA_OF_ASC_NODE = 150.2510
ARG_OF_PERICENTER = 111.9446
MEAN_ANOMALY   = 248.4381

EPHEMERIS_TYPE = 0
CLASSIFICATION_TYPE = U
NORAD_CAT_ID   = 16792
ELEMENT_SET_NO = 999
REV_AT_EPOCH   = 11539
BSTAR          = .66413E-4
MEAN_MOTION_DOT = .601E-5
MEAN_MOTION_DDOT = 0

CCSDS_OMM_VERS = 2.0
CREATION_DATE  = 
ORIGINATOR     = 

OBJECT_NAME    = SL-14 R/B
OBJECT_ID      = 1986-055B
CENTER_NAME    = EARTH
REF_FRAME      = TEME
TIME_SYSTEM    = UTC
MEAN_ELEMENT_THEORY = SGP/SGP4

EPOCH          = 2025-12-25T13:50:18.881088
MEAN_MOTION    = 14.85542689
ECCENTRICITY   = .0018041
INCLINATION    = 82.5194
RA_OF_ASC_NODE = 196.3102
ARG_OF_PERICENTER = 213.8021
MEAN_ANOMALY   = 199.8124

EPHEMERIS_TYPE = 0
CLASSIFICATION_TYPE = U
NORAD_CAT_ID   = 16882
ELEMENT_SET_NO = 999
REV_AT_EPOCH   = 10836
BSTAR          = .55499E-4
MEAN_MOTION_DOT = .505E-5
MEAN_MOTION_DDOT = 0

CCSDS_OMM_VERS = 2.0
CREATION_DATE  = 
ORIGINATOR     = 

OBJECT_NAME    = AJISAI (EGS)
OBJECT_ID      = 1986-061A
CENTER_NAME    = EARTH
REF_FRAME      = TEME
TIME_SYSTEM    = UTC
MEAN_ELEMENT_THEORY = SGP/SGP4

EPOCH          = 2025-12-25T18:02:56.998176
MEAN_MOTION    = 12.44514438
ECCENTRICITY   = .0011311
INCLINATION    = 50.0112
RA_OF_ASC_NODE = 320.7055
ARG_OF_PERICENTER = 98.5713
MEAN_ANOMALY   = 327.4872

EPHEMERIS_TYPE = 0
CLASSIFICATION_TYPE = U
NORAD_CAT_ID   = 16908
ELEMENT_SET_NO = 999
REV_AT_EPOCH   = 45879
BSTAR          = .93373E-4
MEAN_MOTION_DOT = -.84E-6
MEAN_MOTION_DDOT = 0

CCSDS_OMM_VERS = 2.0
CREATION_DATE  = 
ORIGINATOR     = 

OBJECT_NAME    = COSMOS 1812
OBJECT_ID      = 1987-003A
CENTER_NAME    = EARTH
REF_FRAME      = TEME
TIME_SYSTEM    = UTC
MEAN_ELEMENT_THEORY = SGP/SGP4

EPOCH          = 2025-12-25T17:45:44.995968
MEAN_MOTION    = 15.78221026
ECCENTRICITY   = .0006289
INCLINATION    = 82.4871
RA_OF_ASC_NODE = 277.9173
ARG_OF_PERICENTER = 67.7016
MEAN_ANOMALY   = 292.4916

EPHEMERIS_TYPE = 0
CLASSIFICATION_TYPE = U
NORAD_CAT_ID   = 17295
ELEMENT_SET_NO = 999
REV_AT_EPOCH   = 13270
BSTAR          = .6907E-3
MEAN_MOTION_DOT = .119433E-2
MEAN_MOTION_DDOT = 0

CCSDS_OMM_VERS = 2.0
CREATION_DATE  = 
ORIGINATOR     = 

OBJECT_NAME    = SL-14 R/B
OBJECT_ID      = 1987-024B
CENTER_NAME    = EARTH
REF_FRAME      = TEME
TIME_SYSTEM    = UTC
MEAN_ELEMENT_THEORY = SGP/SGP4

EPOCH          = 2025-12-25T12:08:24.170784
MEAN_MOTION    = 14.86036959
ECCENTRICITY   = .0019163
INCLINATION    = 82.5278
RA_OF_ASC_NODE = 162.4617
ARG_OF_PERICENTER = 142.7772
MEAN_ANOMALY   = 217.4777

EPHEMERIS_TYPE = 0
CLASSIFICATION_TYPE = U
NORAD_CAT_ID   = 17567
ELEMENT_SET_NO = 999
REV_AT_EPOCH   = 7711
BSTAR          = .62709E-4
MEAN_MOTION_DOT = .575E-5
MEAN_MOTION_DDOT = 0

CCSDS_OMM_VERS = 2.0
CREATION_DATE  = 
ORIGINATOR     = 

OBJECT_NAME    = COSMOS 1833
OBJECT_ID      = 1987-027A
CENTER_NAME    = EARTH
REF_FRAME      = TEME
TIME_SYSTEM    = UTC
MEAN_ELEMENT_THEORY = SGP/SGP4

EPOCH          = 2025-12-25T17:50:23.164224
MEAN_MOTION    = 14.13028539
ECCENTRICITY   = .002311
INCLINATION    = 70.9163
RA_OF_ASC_NODE = 121.4419
ARG_OF_PERICENTER = 313.5717
MEAN_ANOMALY   = 46.3484

EPHEMERIS_TYPE = 0
CLASSIFICATION_TYPE = U
NORAD_CAT_ID   = 17589
ELEMENT_SET_NO = 999
REV_AT_EPOCH   = 99986
BSTAR          = .18551E-3
MEAN_MOTION_DOT = .299E-5
MEAN_MOTION_DDOT = 0

CCSDS_OMM_VERS = 2.0
CREATION_DATE  = 
ORIGINATOR     = 

OBJECT_NAME    = SL-16 R/B
OBJECT_ID      = 1987-027B
CENTER_NAME    = EARTH
REF_FRAME      = TEME
TIME_SYSTEM    = UTC
MEAN_ELEMENT_THEORY = SGP/SGP4

EPOCH          = 2025-12-25T15:34:27.991776
MEAN_MOTION    = 14.17156572
ECCENTRICITY   = .0007212
INCLINATION    = 71.0038
RA_OF_ASC_NODE = 72.5169
ARG_OF_PERICENTER = 246.2840
MEAN_ANOMALY   = 113.7528

EPHEMERIS_TYPE = 0
CLASSIFICATION_TYPE = U
NORAD_CAT_ID   = 17590
ELEMENT_SET_NO = 999
REV_AT_EPOCH   = 485
BSTAR          = -.17039E-4
MEAN_MOTION_DOT = -.82E-6
MEAN_MOTION_DDOT = 0

CCSDS_OMM_VERS = 2.0
CREATION_DATE  = 
ORIGINATOR     = 

OBJECT_NAME    = SL-14 R/B
OBJECT_ID      = 1987-038B
CENTER_NAME    = EARTH
REF_FRAME      = TEME
TIME_SYSTEM    = UTC
MEAN_ELEMENT_THEORY = SGP/SGP4

EPOCH          = 2025-12-25T12:43:12.936576
MEAN_MOTION    = 14.85272783
ECCENTRICITY   = .0020575
INCLINATION    = 82.5010
RA_OF_ASC_NODE = 6.6528
ARG_OF_PERICENTER = 52.7511
MEAN_ANOMALY   = 307.5578

EPHEMERIS_TYPE = 0
CLASSIFICATION_TYPE = U
NORAD_CAT_ID   = 17912
ELEMENT_SET_NO = 999
REV_AT_EPOCH   = 6822
BSTAR          = .56553E-4
MEAN_MOTION_DOT = .511E-5
MEAN_MOTION_DDOT = 0

CCSDS_OMM_VERS = 2.0
CREATION_DATE  = 
ORIGINATOR     = 

OBJECT_NAME    = COSMOS 1844
OBJECT_ID      = 1987-041A
CENTER_NAME    = EARTH
REF_FRAME      = TEME
TIME_SYSTEM    = UTC
MEAN_ELEMENT_THEORY = SGP/SGP4

EPOCH          = 2025-12-25T15:27:59.334336
MEAN_MOTION    = 14.14531822
ECCENTRICITY   = .0029553
INCLINATION    = 70.8967
RA_OF_ASC_NODE = 190.3525
ARG_OF_PERICENTER = 136.6796
MEAN_ANOMALY   = 223.6657

EPHEMERIS_TYPE = 0
CLASSIFICATION_TYPE = U
NORAD_CAT_ID   = 17973
ELEMENT_SET_NO = 999
REV_AT_EPOCH   = 99311
BSTAR          = .19983E-3
MEAN_MOTION_DOT = .337E-5
MEAN_MOTION_DDOT = 0

CCSDS_OMM_VERS = 2.0
CREATION_DATE  = 
ORIGINATOR     = 

OBJECT_NAME    = SL-14 R/B
OBJECT_ID      = 1987-055B
CENTER_NAME    = EARTH
REF_FRAME      = TEME
TIME_SYSTEM    = UTC
MEAN_ELEMENT_THEORY = SGP/SGP4

EPOCH          = 2025-12-25T15:42:16.538976
MEAN_MOTION    = 14.85533971
ECCENTRICITY   = .0019188
INCLINATION    = 82.4992
RA_OF_ASC_NODE = 58.8171
ARG_OF_PERICENTER = 257.3237
MEAN_ANOMALY   = 102.5834

EPHEMERIS_TYPE = 0
CLASSIFICATION_TYPE = U
NORAD_CAT_ID   = 18153
ELEMENT_SET_NO = 999
REV_AT_EPOCH   = 5894
BSTAR          = .57138E-4
MEAN_MOTION_DOT = .519E-5
MEAN_MOTION_DDOT = 0

CCSDS_OMM_VERS = 2.0
CREATION_DATE  = 
ORIGINATOR     = 

OBJECT_NAME    = COSMOS 1867
OBJECT_ID      = 1987-060A
CENTER_NAME    = EARTH
REF_FRAME      = TEME
TIME_SYSTEM    = UTC
MEAN_ELEMENT_THEORY = SGP/SGP4

EPOCH          = 2025-12-25T17:41:15.281088
MEAN_MOTION    = 14.31488121
ECCENTRICITY   = .0013681
INCLINATION    = 65.0091
RA_OF_ASC_NODE = 153.8047
ARG_OF_PERICENTER = 272.3651
MEAN_ANOMALY   = 87.5867

EPHEMERIS_TYPE = 0
CLASSIFICATION_TYPE = U
NORAD_CAT_ID   = 18187
ELEMENT_SET_NO = 999
REV_AT_EPOCH   = 935
BSTAR          = .30413E-4
MEAN_MOTION_DOT = -.19E-6
MEAN_MOTION_DDOT = 0

CCSDS_OMM_VERS = 2.0
CREATION_DATE  = 
ORIGINATOR     = 

OBJECT_NAME    = SL-14 R/B
OBJECT_ID      = 1988-001B
CENTER_NAME    = EARTH
REF_FRAME      = TEME
TIME_SYSTEM    = UTC
MEAN_ELEMENT_THEORY = SGP/SGP4

EPOCH          = 2025-12-25T17:05:33.078624
MEAN_MOTION    = 14.85436903
ECCENTRICITY   = .0019409
INCLINATION    = 82.5133
RA_OF_ASC_NODE = 264.9468
ARG_OF_PERICENTER = 120.3637
MEAN_ANOMALY   = 239.9501

EPHEMERIS_TYPE = 0
CLASSIFICATION_TYPE = U
NORAD_CAT_ID   = 18749
ELEMENT_SET_NO = 999
REV_AT_EPOCH   = 3104
BSTAR          = .56381E-4
MEAN_MOTION_DOT = .512E-5
MEAN_MOTION_DDOT = 0

